#dP2024  9  1 12  0  0.00000000      96 __u+U IGS20 EXT  IAC
## 2330  43200.00000000   900.00000000 60554 0.5000000000000
+   53   G02G03G04G05G06G07G08G09G10G11G12G13G14G15G16G17G18
+        G19G20G21G22G23G24G25G26G27G28G29G30G31G32R01R02R03
+        R04R05R07R08R09R11R12R14R15R16R17R18R19R20R21R22R24
+        R25R26  0  0  0  0  0  0  0  0  0  0  0  0  0  0  0
+          0  0  0  0  0  0  0  0  0  0  0  0  0  0  0  0  0
++         8  8  9  7  9  9  9  8  9  7  8  8  9  7  7 10  7
++         9  7  8  8  8  8  7  7  8  7  7  7  8  7  8  7  7
++         8  7  8  7  8  8  7  9  8  7  7  9  9  9  7  7  7
++         7  8  0  0  0  0  0  0  0  0  0  0  0  0  0  0  0
++         0  0  0  0  0  0  0  0  0  0  0  0  0  0  0  0  0
%c M  cc GPS ccc cccc cccc cccc cccc ccccc ccccc ccccc ccccc
%c cc cc ccc ccc cccc cccc cccc cccc ccccc ccccc ccccc ccccc
%f  0.0000000  0.000000000  0.00000000000  0.000000000000000
%f  0.0000000  0.000000000  0.00000000000  0.000000000000000
%i    0    0    0    0      0      0      0      0         0
%i    0    0    0    0      0      0      0      0         0
/* IAC                                ULTRA-RAPID PREDICTION
/* S/V CLOCKS ARE ALIGNED TO GNSS TIME                      
/* G:C1WC2W R:C1PC2P E:C1XC5X C:C2IC6I J:C1CC2S             
/* PCV:IGS20_2317 OL/AL:FES2004  NONE     YN ORB:CoN CLK:CoN
*  2024 09 01 14 30  0.00000000
PG02  -5363.357866  17379.517756 -18766.312451   -367.067951
PG03   7867.086090  19660.812426 -16268.679661    522.109650
PG04   -166.013539  25837.131088   5836.960216    435.451492
PG05   8027.890294 -12529.428560  21814.816226   -185.154628
PG06  24947.868882  -4151.197728  -8225.040116     60.153067
PG07  13632.218511  10464.003412  20883.214221    -43.386597
PG08  -6514.246498  24795.684803   5895.823319    337.225700
PG09   8380.578917  20255.958195  14864.249545    338.323833
PG10 -22894.807062  -8948.585770 -10269.355375   -111.558684
PG11  22510.450096 -12662.426160   6079.027824   -729.382949
PG12  -3246.196846 -19550.536896 -17982.747225   -534.813203
PG13  13529.315859 -19474.239164  11491.794456    674.122843
PG14  22855.756325  11872.085410  -6909.325644    485.760548
PG15   3030.517071 -25693.423430   5071.812469    199.280876
PG16 -13085.443463   8228.200202  21306.633280   -192.721267
PG17  14101.029079   5110.113098 -21492.345447    639.249162
PG18 -13857.657514  -9553.341383  20618.875386   -650.551221
PG19  15832.934990  -3775.994495 -21060.822412    532.381834
PG20  17462.847991  -6203.077872  19036.353432    371.078520
PG21 -10527.435020  17867.090183 -15540.187219    102.552563
PG22  21288.731756   6234.759104 -13969.941009    -57.452091
PG23 -20843.764543 -16551.096204   1873.180664    310.493940
PG24   6500.764614 -18632.951864 -18027.018082   -486.787035
PG25 -14869.248348 -19886.745103 -10122.331278    499.527282
PG26 -21762.513360   -353.328841  15311.588211     88.379656
PG27 -12535.128889  17663.856585  14788.022437    -33.611945
PG28 -24253.792350   3089.619877 -10392.478916   -395.000435
PG29  -4302.090089 -22747.864533  12862.396414   -580.579214
PG30  21985.973108   2760.441815  14984.250288   -329.377122
PG31 -24641.844893  10399.716306    966.517901   -225.220383
PG32 -14756.555531  -3345.918056 -21622.755422   -601.099591
PR01 -11458.471401 -18857.534964 -12794.078073     96.359489
PR02 -11502.044829  -3291.327492 -22499.235936    -24.429372
PR03  -5819.443430  15068.710984 -19678.601495    106.738157
PR04   2739.841995  24565.418179  -6242.547791    252.652646
PR05   9814.794931  21032.296384  10557.644697    137.009868
PR07   5561.406260 -15657.827867  19408.615918     90.013684
PR08  -3005.853206 -24617.698243   6105.387182     -6.398694
PR09  24691.446291   3464.070709  -5567.684808    206.679980
PR11   -675.936851 -11426.926665 -22779.180058     13.049279
PR12 -19356.610247 -11512.188772 -11958.410843     44.331323
PR14 -15456.757192   5567.192639  19521.735521     26.881620
PR15   2449.957770  11941.554367  22431.788070     76.283133
PR16  19282.439663  11435.179689  12219.851793     28.759030
PR17 -18456.802595  17643.691473   -376.775811    118.222200
PR18  -8999.995913  17934.500700 -15708.792462    159.915048
PR19   3296.661601  10688.728897 -22925.452776   -289.778502
PR20  18308.257822  -5879.774977 -16767.161818   -118.519074
PR21  18779.051958 -17230.922959   -269.232015   -130.839717
PR22   8266.971260 -17640.370204  16495.149090     56.981541
PR24 -18443.713343   6864.440449  16263.099046    -70.244317
PR25  18952.552059 -17033.387643    759.831649   -101.046395
PR26  -2391.576947 -24248.721528   7529.108168     15.467207
*  2024 09 01 14 45  0.00000000
PG02  -7316.553449  18298.731472 -17176.833549   -367.060901
PG03   6239.097558  18621.864379 -18102.149020    522.121990
PG04   -476.699957  26307.819113   3022.895650    435.458033
PG05  10148.844566 -11158.841925  21682.280581   -185.155675
PG06  24006.032296  -3575.847895 -10848.308663     60.130289
PG07  11543.914841  11467.848525  21580.375679    -43.382080
PG08  -6762.111176  23925.960520   8590.792745    337.238015
PG09   8063.153726  21828.576630  12658.819008    338.338124
PG10 -23653.107526  -9675.882297  -7633.133964   -111.569264
PG11  23093.484016 -12639.663817   3274.916481   -729.387256
PG12  -1553.588955 -18319.694810 -19462.678057   -534.815741
PG13  13375.415120 -17979.753005  13844.230423    674.124767
PG14  23202.455967  12473.807498  -4194.192122    485.768324
PG15   3409.051559 -24914.419656   7756.303198    199.284851
PG16 -14937.468052   6596.800882  20696.382253   -192.712022
PG17  13662.577640   7594.961254 -21030.172725    639.239653
PG18 -11682.752774 -10556.425457  21441.465378   -650.553568
PG19  15418.254030  -1392.644265 -21693.616208    532.386369
PG20  19284.784861  -5177.308343  17504.756291    371.078180
PG21 -12183.082087  18516.471216 -13388.391496    102.551920
PG22  22302.579994   7415.037542 -11664.134114    -57.455603
PG23 -20434.720994 -16494.316604   4721.968720    310.501620
PG24   8258.562726 -19413.864705 -16326.916235   -486.787129
PG25 -13718.364709 -19366.499600 -12526.530347    499.527379
PG26 -23064.903929  -1398.268471  13261.163354     88.372364
PG27 -12578.483410  15784.597498  16748.617397    -33.612194
PG28 -23160.884634   2309.614623 -12809.503919   -395.013319
PG29  -3873.630265 -24034.944323  10425.433028   -580.577131
PG30  20437.702195   3688.590700  16853.410531   -329.370761
PG31 -24714.100637  10166.479126  -1853.952844   -225.219992
PG32 -14519.591463  -5832.659194 -21273.795236   -601.096634
PR01 -11996.805546 -20162.992468 -10003.839957     96.360573
PR02 -12256.233669  -5912.856386 -21552.214037    -24.429577
PR03  -6428.996627  12610.105356 -21164.107577    106.738843
PR04   2654.229356  23592.203773  -9283.205883    252.654258
PR05  10260.106777  22073.600318   7587.668512    137.010433
PR07   6144.381546 -13243.095942  20966.239389     90.014526
PR08  -2909.673087 -23676.506496   9141.913889     -6.398657
PR09  25195.727146   3478.507004  -2438.106792    206.681884
PR11   2070.398252 -10743.555620 -23027.753911     13.048270
PR12 -17790.989624 -11007.891369 -14571.827125     44.331715
PR14 -17698.472426   5094.114335  17654.673824     26.881595
PR15   -252.051186  11240.264969  22920.893803     76.282872
PR16  17696.450829  10912.982775  14819.932822     28.759317
PR17 -18212.904549  17672.769570   2847.218264    118.224978
PR18 -10164.994243  19300.964778 -13174.014427    159.916711
PR19   1287.444665  12617.569893 -22133.498149   -289.779878
PR20  16590.206089  -4494.721033 -18850.484537   -118.519701
PR21  18473.533150 -17208.287655  -3498.500102   -130.842616
PR22   9564.002196 -19009.631982  14094.784887     56.973836
PR24 -16868.838327   5421.631132  18379.875621    -70.245775
PR25  18776.269487 -17068.049578  -2452.099866   -101.046368
PR26  -2233.909690 -23138.742534  10494.272680     15.473376
EOF
